[{"OBJECT_NAME":"SAUDISAT 5A","OBJECT_ID":"2018-102A","EPOCH":"2026-03-09T23:40:00.596928","MEAN_MOTION":15.26941021,"ECCENTRICITY":0.00113651,"INCLINATION":97.3185,"RA_OF_ASC_NODE":132.4981,"ARG_OF_PERICENTER":121.7113,"MEAN_ANOMALY":238.5235,"EPHEMERIS_TYPE":0,"CLASSIFICATION_TYPE":"U","NORAD_CAT_ID":43831,"ELEMENT_SET_NO":999,"REV_AT_EPOCH":40053,"BSTAR":0.00030305233,"MEAN_MOTION_DOT":7.96e-5,"MEAN_MOTION_DDOT":0},{"OBJECT_NAME":"STARLINK-35501","OBJECT_ID":"2025-259Q","EPOCH":"2026-03-09T13:13:26.061312","MEAN_MOTION":15.27569906,"ECCENTRICITY":0.00040777,"INCLINATION":43.0011,"RA_OF_ASC_NODE":274.8197,"ARG_OF_PERICENTER":295.3418,"MEAN_ANOMALY":64.7011,"EPHEMERIS_TYPE":0,"CLASSIFICATION_TYPE":"U","NORAD_CAT_ID":66436,"ELEMENT_SET_NO":999,"REV_AT_EPOCH":1947,"BSTAR":0.00091587863,"MEAN_MOTION_DOT":0.00025023,"MEAN_MOTION_DDOT":0}]
